EUTELSAT 7A             
1 28187U 04008A   25251.51572594  .00000103  00000+0  00000+0 0  9993
2 28187   5.1085  75.3646 0001694 144.5448 174.3934  1.00272037 78523
EUTELSAT 174A           
1 28924U 05052A   25251.59234505  .00000009  00000+0  00000+0 0  9992
2 28924   3.4992  80.0266 0006165  89.3863 205.7210  1.00271312 49503
EUTELSAT HOTBIRD 13B    
1 29270U 06032A   25251.52571067  .00000154  00000+0  00000+0 0  9997
2 29270   0.9274  85.3818 0003986  77.4315  47.3590  1.00271309 44481
EUTELSAT HOTBIRD 13C    
1 33459U 08065A   25251.37387001 -.00000101  00000+0  00000+0 0  9998
2 33459   2.2193  82.5490 0004387 108.0476 279.1965  1.00271520 44521
EUTELSAT 36B            
1 36101U 09065A   25251.52917735  .00000110  00000+0  00000+0 0  9995
2 36101   0.0548 354.0881 0005905 178.4953  56.2521  1.00273220 57881
EUTELSAT KA-SAT 9A      
1 37258U 10069A   25251.23545652  .00000058  00000+0  00000+0 0  9999
2 37258   0.0556 322.8495 0003282 171.6500 306.8099  1.00266588 41175
EUTELSAT 7 WEST A       
1 37816U 11051A   25251.37491002 -.00000063  00000+0  00000+0 0  9992
2 37816   0.0647 352.2372 0005933 184.4319 298.6750  1.00270956 51067
EUTELSAT 16A            
1 37836U 11057A   25251.52224399  .00000101  00000+0  00000+0 0  9992
2 37836   0.0651 351.1271 0005394 174.7837  25.9128  1.00271024  4502
